1 48430U 21040C   21137.91667824 -.00981150  29635-3 -28481-2 0  9992
2 48430  53.0501 180.5901 0001310  44.8478  46.2159 15.92239594  1994
1 48430U 21040C   21138.25001157 -.00826266  21582-3 -24885-2 0  9994
2 48430  53.0469 178.8648 0001517 269.5062 293.0457 15.91497995  2713
1 48430U 21040C   21138.50001157 -.00981354  29325-3 -30192-2 0  9993
2 48430  53.0464 177.5918 0000202  64.6324 130.9380 15.91117572  2757
1 48430U 21040C   21138.58335648 -.00948332  27517-3 -29435-2 0  9994
2 48430  53.0499 177.1686 0000507  52.3111 260.9281 15.90939088  1777
1 48430U 21040C   21138.91668981 -.00889067  00000-0 -31402-2 0  9991
2 48430  53.0492 175.4700 0001133  57.8925   5.2356 15.90318557  1783
1 48430U 21040C   21139.16667824 -.00888103  00000-0 -32145-2 0  9999
2 48430  53.0495 174.2001 0001129  58.0844 356.8950 15.89839932  2863
1 48430U 21040C   21139.50001157 -.00886910  00000-0 -33162-2 0  9992
2 48430  53.0480 172.4982 0001120  83.2553  80.2772 15.89200580  1829
1 48430U 21040C   21139.83335648 -.00887440  00000-0 -34273-2 0  9996
2 48430  53.0502 170.8061 0001059  72.7222 198.6633 15.88563809  2962
1 48430U 21040C   21139.91667824 -.00887045  00000-0 -34532-2 0  9998
2 48430  53.0490 170.3825 0001137  52.2059 335.9407 15.88404072  1789
1 48430U 21040C   21140.50001157 -.00883817  00000-0 -36372-2 0  9993
2 48430  53.0463 167.4203 0001117  74.8239  49.7690 15.87287593  3078
1 48430U 21040C   21140.58334491 -.00721413  00000-0 -29553-2 0  9997
2 48430  53.0489 166.9983 0001143  67.3489 173.7537 15.87004824  1775
1 48430U 21040C   21140.66667824 -.00859360  00000-0 -35861-2 0  9997
2 48430  53.0490 166.5760 0000992  64.4985 292.9438 15.86951904  1791
1 48430U 21040C   21141.16667824 -.00883618  00000-0 -38723-2 0  9996
2 48430  53.0496 164.0475 0001029  64.4996 270.3059 15.86016593  3187
1 48430U 21040C   21141.58335648 -.00881704  00000-0 -40162-2 0  9992
2 48430  53.0487 161.9336 0001112  87.7467 106.9552 15.85220660  1836
1 48430U 21040C   21141.83335648 -.00880805  00000-0 -41055-2 0  9993
2 48430  53.0492 160.6712 0001120  87.2019  94.8257 15.84744612  3288
1 48430U 21040C   21141.91667824 -.00881235  00000-0 -41395-2 0  9991
2 48430  53.0490 160.2511 0001002  90.9388 206.7022 15.84586388  1880
1 48430U 21040C   21142.58334491 -.00794360  00000-0 -39373-2 0  9991
2 48430  53.0489 156.8854 0001254  66.8294  74.5625 15.83254119  1777
1 48430U 21040C   21142.58334491 -.00794360  00000-0 -39373-2 0  9991
2 48430  53.0489 156.8854 0001254  66.8294  74.5625 15.83254119  3409
1 48430U 21040C   21142.91667824 -.00878503  00000-0 -45188-2 0  9990
2 48430  53.0485 155.2057 0001202  59.4706 182.6097 15.82681987  1770
1 48430U 21040C   21142.91667824 -.00878503  00000-0 -45188-2 0  9990
2 48430  53.0485 155.2057 0001202  59.4706 182.6097 15.82681987  3457
1 48430U 21040C   21143.58334491 -.00868070  00000-0 -47354-2 0  9990
2 48430  53.0484 151.8503 0001149  61.1119  20.1204 15.81408538  1780
1 48430U 21040C   21143.58334491 -.00868070  00000-0 -47354-2 0  9990
2 48430  53.0484 151.8503 0001149  61.1119  20.1204 15.81408538  3568
1 48430U 21040C   21143.91667824 -.00875255  00000-0 -49202-2 0  9993
2 48430  53.0487 150.1762 0001201  67.7150 111.9487 15.80782309  1836
1 48430U 21040C   21144.25001157 -.00790117  00000-0 -45413-2 0  9995
2 48430  53.0487 148.4973 0001026  89.7203 187.6472 15.80086872  3667
1 48430U 21040C   21144.58334491 -.00745602  00000-0 -43951-2 0  9995
2 48430  53.0477 146.8279 0001170  60.0654 314.2333 15.79421940  1781
1 48430U 21040C   21144.58334491 -.00745602  00000-0 -43951-2 0  9995
2 48430  53.0477 146.8279 0001170  60.0654 314.2333 15.79421940  3727
1 48430U 21040C   21144.91667824 -.00873002  00000-0 -53539-2 0  9990
2 48430  53.0480 145.1584 0001220  60.1178  50.2887 15.78886302  3772
1 48430U 21040C   21145.58334491 -.00836879  00000-0 -54177-2 0  9995
2 48430  53.0477 141.8208 0001003  70.9450 229.5073 15.77599120  1779
1 48430U 21040C   21145.66667824 -.00871772  00000-0 -57009-2 0  9991
2 48430  53.0479 141.4042 0001116  64.4433 349.5387 15.77466886  3895
1 48430U 21040C   21145.91668981 -.00871222  00000-0 -58190-2 0  9996
2 48430  53.0480 140.1561 0001095  65.1934 329.1938 15.76994804  1832
1 48430U 21040C   21146.50001157 -.00927977  00000-0 -65536-2 0  9999
2 48430  53.0495 137.2416 0001120  83.1712  23.6188 15.75898253  1818
1 48430U 21040C   21146.91667824 -.00926971  00000-0 -67945-2 0  9992
2 48430  53.0479 135.1671 0001076  67.3972 243.9900 15.75054106  1823
1 48430U 21040C   21147.00001157 -.00918364  00000-0 -67752-2 0  9997
2 48430  53.0481 134.7535 0001171  60.5406   3.6141 15.74881627  4100
1 48430U 21040C   21147.58334491 -.00534670  00000-0 -39810-2 0  9998
2 48430  53.0479 131.8576 0001144  61.2800  70.8606 15.73610770  4195
1 48430U 21040C   21147.91667824  .00220730  00000-0  15447-2 0  9991
2 48430  53.0487 130.1878 0001118  61.0130 160.4120 15.73065840  1776
1 48430U 21040C   21148.41667824 -.00029046  00000-0 -20284-3 0  9992
2 48430  53.0483 127.7052 0001124  65.5376 109.4167 15.73242296  4326
1 48430U 21040C   21148.58334491 -.00011377  00000-0 -76665-4 0  9994
2 48430  53.0482 126.8761 0000985  71.0184 328.4373 15.73222114  1826
1 48430U 21040C   21148.91667824  .00022520  00000-0  16429-3 0  9991
2 48430  53.0488 125.2191 0001009  85.1006  43.3057 15.73217877  1775
1 48430U 21040C   21149.50001157  .00004236  00000-0  34586-4 0  9997
2 48430  53.0489 122.3231 0001218  71.8348 122.2565 15.73194705  4499
1 48430U 21040C   21149.58335648 -.00018340  00000-0 -12650-3 0  9990
2 48430  53.0491 121.9084 0001203  74.7826 231.6036 15.73201995  1776
1 48430U 21040C   21149.91667824  .00035459  00000-0  25598-3 0  9994
2 48430  53.0494 120.2516 0001268  83.0037 312.2569 15.73197969  1838
1 48430U 21040C   21150.58335648 -.00129536  00000-0 -92937-3 0  9998
2 48430  53.0487 116.9406 0001134  77.6225 135.6460 15.73281955  1779
1 48430U 21040C   21150.83334491  .00050575  00000-0  36293-3 0  9998
2 48430  53.0488 115.6976 0000976  87.2768 102.6883 15.73174875  4701
1 48430U 21040C   21150.91667824  .00034702  00000-0  25069-3 0  9999
2 48430  53.0491 115.2840 0000981  88.2221 213.9706 15.73192471  1778
1 48430U 21040C   21151.50001157 -.00006864  00000-0 -44456-4 0  9998
2 48430  53.0491 112.3876 0000968  71.5088 296.3483 15.73234926  4813
1 48430U 21040C   21151.58334491 -.00011979  00000-0 -80902-4 0  9995
2 48430  53.0493 111.9729 0000953  76.7120  43.3898 15.73239108  1774
1 48430U 21040C   21151.91667824 -.00087699  00000-0 -62502-3 0  9998
2 48430  53.0495 110.3164 0001174  86.6610 122.4226 15.73268389  1779
1 48430U 21040C   21152.58335648 -.00005644  00000-0 -35797-4 0  9995
2 48430  53.0487 107.0048 0001257  83.4537 303.6271 15.73211597  4987
1 48430U 21040C   21152.91667824  .00015457  00000-0  11421-3 0  9994
2 48430  53.0490 105.3482 0001305  90.1585  25.8116 15.73224508  1889
1 48430U 21040C   21153.08334491 -.00043419  00000-0 -30578-3 0  9999
2 48430  53.0488 104.5217 0001233  82.9178 257.5461 15.73253567  5068
1 48430U 21040C   21153.58334491 -.00002526  00000-0 -13584-4 0  9997
2 48430  53.0492 102.0368 0000978  83.4085 210.5353 15.73194939  1827
1 48430U 21040C   21153.91667824  .00001144  00000-0  12560-4 0  9999
2 48430  53.0495 100.3801 0001052  87.1498 295.7285 15.73217130  5198
1 48430U 21040C   21154.58335648 -.00025057  00000-0 -17424-3 0  9993
2 48430  53.0491  97.0685 0001040  86.5937 114.2932 15.73249574  1876
1 48430U 21040C   21154.91668981 -.00043447  00000-0 -30633-3 0  9999
2 48430  53.0490  95.4125 0001256  91.6000 198.2838 15.73226694  1812
1 48430U 21040C   21155.16667824  .00025742  00000-0  18734-3 0  9996
2 48430  53.0489  94.1725 0001335  81.4735 185.0707 15.73187155  5385
1 48430U 21040C   21155.50001157 -.00584944  00000-0 -44242-2 0  9993
2 48430  53.0489  92.5155 0001255  77.4707 277.9903 15.73386001  5446
1 48430U 21040C   21155.58336806 -.00184087  00000-0 -13396-2 0  9993
2 48430  53.0491  92.1007 0001116  72.1829  35.7120 15.73135423  1924
1 48430U 21040C   21155.83334491  .00314739  00000-0  21797-2 0  9990
2 48430  53.0488  90.8582 0001541  75.1927   9.1411 15.73026006  5497
1 48430U 21040C   21155.91667824 -.00034796  00000-0 -24428-3 0  9997
2 48430  53.0496  90.4445 0001098  90.9847 105.7609 15.73219930  1772
1 48430U 21040C   21156.50001157 -.00023327  00000-0 -16200-3 0  9991
2 48430  53.0490  87.5467 0001035  87.5873 174.8228 15.73231249  5594
1 48430U 21040C   21156.58335648 -.00023511  00000-0 -16339-3 0  9992
2 48430  53.0492  87.1322 0001052  91.6847 283.0345 15.73220753  1775
1 48430U 21040C   21156.91667824 -.00037348  00000-0 -26280-3 0  9992
2 48430  53.0495  85.4768 0001256  93.5748  10.0504 15.73201407  1770
1 48430U 21040C   21157.50002315 -.00010913  00000-0 -73399-4 0  9999
2 48430  53.0499  82.5789 0001240  89.8989  79.4164 15.73206606  5752
1 48430U 21040C   21157.58334491  .00041413  00000-0  29819-3 0  9994
2 48430  53.0501  82.1646 0001243  92.7988 188.6967 15.73183675  1771
1 48430U 21040C   21157.91667824 -.00015829  00000-0 -10837-3 0  9994
2 48430  53.0503  80.5092 0001300  91.9473 278.4924 15.73237891  1775
1 48430U 21040C   21158.16667824  .00039969  00000-0  28761-3 0  9996
2 48430  53.0502  79.2686 0001323  83.4357 263.7478 15.73215034  5860
1 48430U 21040C   21158.58334491  .00013118  00000-0  97769-4 0  9996
2 48430  53.0500  77.1966 0000978  96.3688  92.0648 15.73188379  1826
1 48430U 21040C   21158.58334491  .00013118  00000-0  97769-4 0  9996
2 48430  53.0500  77.1966 0000978  96.3688  92.0648 15.73188379  5921
1 48430U 21040C   21158.91667824 -.00008128  00000-0 -53505-4 0  9999
2 48430  53.0502  75.5418 0000991  96.2869 181.0808 15.73216418  1875
1 48430U 21040C   21159.50001157  .00080160  00000-0  57494-3 0  9990
2 48430  53.0506  72.6437 0001216  85.4807 257.6408 15.72998932  6071
1 48430U 21040C   21159.58334491  .00617956  00000-0  41655-2 0  9998
2 48430  53.0505  72.2291 0001029  84.5568  10.8255 15.72773281  1982
